QB50P1                  
1 40025U 14033R   26130.50987584  .00005824  00000+0  29268-3 0  9998
2 40025  98.0986 139.0315 0008611   7.1794 352.9559 15.17673094647311
DTUSAT-2                
1 40030U 14033W   26130.51844706  .00004917  00000+0  27073-3 0  9997
2 40030  98.0873 125.8715 0008163  17.2871 342.8635 15.14524623646984
QB50P2                  
1 40032U 14033Y   26130.51626846  .00004715  00000+0  25878-3 0  9999
2 40032  98.0760 125.0689 0006002 313.3795  46.6935 15.14676297646963
PERSEUS-M1              
1 40039U 14033AF  26130.36831495  .00001088  00000+0  10356-3 0  9992
2 40039  97.9623  73.8888 0012912  66.0365 294.2205 14.95501915644982
POLYITAN-1              
1 40042U 14033AJ  26130.50937279  .00010896  00000+0  35566-3 0  9996
2 40042  98.0979 153.2444 0005346 277.8562  82.2070 15.31964332647825
TIGRISAT                
1 40043U 14033AK  26130.38405770  .00001500  00000+0  17851-3 0  9998
2 40043  97.7786 281.2767 0049076 197.0711 162.8855 14.85000161640014
CANX-4                  
1 40055U 14034C   26130.52526326  .00000585  00000+0  82490-4 0  9993
2 40055  98.3173   4.4481 0013787 128.4497 231.7954 14.81194156638951
CANX-5                  
1 40056U 14034D   26130.38902470  .00000573  00000+0  80825-4 0  9993
2 40056  98.3174   4.3480 0013768 129.0790 231.1648 14.81210877629743
GONETS-M 10             
1 40063U 14036C   26130.56049049  .00000048  00000+0  27861-3 0  9994
2 40063  82.5114 331.0529 0021103 222.8442 137.0994 12.42944594537574
METEOR-M 2              
1 40069U 14037A   26130.55715882  .00000296  00000+0  15474-3 0  9997
2 40069  98.5100 107.6338 0006387 136.5449 223.6233 14.21451775613972
DX1                     
1 40071U 14037C   26130.48417118  .00000976  00000+0  10804-3 0  9990
2 40071  98.3843  89.9086 0008143  42.4854 317.6990 14.89865306640490
UKUBE-1                 
1 40074U 14037F   26130.47704042  .00005504  00000+0  31658-3 0  9999
2 40074  98.4249 129.8081 0000535  41.1506 318.9763 15.12948833642858
GAOFEN-2                
1 40118U 14049A   26130.54065331  .00001053  00000+0  14326-3 0  9998
2 40118  98.0124 194.7803 0007475   7.0938 353.0378 14.80861321633669
BRITE-PL2 (HEWELIUSZ)   
1 40119U 14049B   26130.27716181  .00001143  00000+0  11135-3 0  9990
2 40119  97.9055 241.9982 0012912 231.7846 128.2212 14.94452111635782
CBERS 4                 
1 40336U 14079A   26130.53741829  .00000367  00000+0  14225-3 0  9990
2 40336  98.3552 188.5451 0001934 105.9305 254.2095 14.35499693598554
SMAP                    
1 40376U 15003A   26130.47299821  .00000289  00000+0  64869-4 0  9998
2 40376  98.1287 138.1005 0001463  69.8392 290.2968 14.63405338602108
GONETS-M 11             
1 40552U 15020A   26130.49645730  .00000155  00000+0  10502-2 0  9994
2 40552  82.4873  54.4730 0017380  83.3185 276.9872 12.42876065504056
GONETS-M 12             
1 40553U 15020B   26130.55087762  .00000075  00000+0  47041-3 0  9997
2 40553  82.4905  55.5531 0016413  68.9910 291.2924 12.42890211504052
GONETS-M 13             
1 40554U 15020C   26130.52372383  .00000176  00000+0  11958-2 0  9990
2 40554  82.4869  54.1961 0014994  55.0845 305.1641 12.42869405504029
DMC3-FM1                
1 40715U 15032A   26130.55719513 -.00000304  00000+0 -29134-4 0  9997
2 40715  97.6511 357.1986 0005625 161.9887 198.1529 14.85693519584323
DMC3-FM2                
1 40716U 15032B   26130.57937726  .00000315  00000+0  42201-4 0  9998
2 40716  97.6564 358.7676 0006020 168.9403 191.1946 14.85699185584327
DMC3-FM3                
1 40717U 15032C   26130.53511826  .00000874  00000+0  10673-3 0  9991
2 40717  97.6617   0.4541 0005310 165.6421 194.4946 14.85701283584323
CARBONITE 1 (CBNT-1)    
1 40718U 15032D   26130.47885559  .00001246  00000+0  15746-3 0  9992
2 40718  97.6506 310.1308 0015874  61.2605 299.0202 14.83472643583750
LILACSAT-2              
1 40908U 15049K   26130.52466661  .00011349  00000+0  20255-3 0  9992
2 40908  97.4701 165.9629 0007877  45.0341 315.1548 15.50200823589910
COSMOS 2507 (RODNIK-S *)
1 40920U 15050A   26130.48032704  .00000014  00000+0  32255-4 0  9991
2 40920  82.4892 103.1464 0011201  72.6383 287.5921 12.42925702482173
COSMOS 2508 (RODNIK-S *)
1 40921U 15050B   26130.51545301 -.00000043  00000+0 -38412-3 0  9992
2 40921  82.4845 101.6438 0015398 103.2922 256.9876 12.42912659482162
COSMOS 2509 (RODNIK-S *)
1 40922U 15050C   26130.45435845 -.00000115  00000+0 -90535-3 0  9991
2 40922  82.4853 101.7803 0015523 119.6583 240.6045 12.42882119482191
