OBJECT_NAME,OBJECT_ID,EPOCH,MEAN_MOTION,ECCENTRICITY,INCLINATION,RA_OF_ASC_NODE,ARG_OF_PERICENTER,MEAN_ANOMALY,EPHEMERIS_TYPE,CLASSIFICATION_TYPE,NORAD_CAT_ID,ELEMENT_SET_NO,REV_AT_EPOCH,BSTAR,MEAN_MOTION_DOT,MEAN_MOTION_DDOT
QB50P1,2014-033R,2026-05-10T12:14:13.272576,15.17673094,.0008611,98.0986,139.0315,7.1794,352.9559,0,U,40025,999,64731,.29268E-3,.5824E-4,0
DTUSAT-2,2014-033W,2026-05-10T12:26:33.825984,15.14524623,.0008163,98.0873,125.8715,17.2871,342.8635,0,U,40030,999,64698,.27073E-3,.4917E-4,0
QB50P2,2014-033Y,2026-05-10T12:23:25.594944,15.14676297,.0006002,98.0760,125.0689,313.3795,46.6935,0,U,40032,999,64696,.25878E-3,.4715E-4,0
PERSEUS-M1,2014-033AF,2026-05-10T08:50:22.411680,14.95501915,.0012912,97.9623,73.8888,66.0365,294.2205,0,U,40039,999,64498,.10356E-3,.1088E-4,0
POLYITAN-1,2014-033AJ,2026-05-10T12:13:29.809056,15.31964332,.0005346,98.0979,153.2444,277.8562,82.2070,0,U,40042,999,64782,.35566E-3,.10896E-3,0
TIGRISAT,2014-033AK,2026-05-10T09:13:02.585280,14.85000161,.0049076,97.7786,281.2767,197.0711,162.8855,0,U,40043,999,64001,.17851E-3,.15E-4,0
CANX-4,2014-034C,2026-05-10T12:36:22.745664,14.81194156,.0013787,98.3173,4.4481,128.4497,231.7954,0,U,40055,999,63895,.8249E-4,.585E-5,0
CANX-5,2014-034D,2026-05-10T09:20:11.734080,14.81210877,.0013768,98.3174,4.3480,129.0790,231.1648,0,U,40056,999,62974,.80825E-4,.573E-5,0
GONETS-M 10,2014-036C,2026-05-10T13:27:06.378336,12.42944594,.0021103,82.5114,331.0529,222.8442,137.0994,0,U,40063,999,53757,.27861E-3,.48E-6,0
METEOR-M 2,2014-037A,2026-05-10T13:22:18.522048,14.21451775,.0006387,98.5100,107.6338,136.5449,223.6233,0,U,40069,999,61397,.15474E-3,.296E-5,0
DX1,2014-037C,2026-05-10T11:37:12.389952,14.89865306,.0008143,98.3843,89.9086,42.4854,317.6990,0,U,40071,999,64049,.10804E-3,.976E-5,0
UKUBE-1,2014-037F,2026-05-10T11:26:56.292288,15.12948833,.0000535,98.4249,129.8081,41.1506,318.9763,0,U,40074,999,64285,.31658E-3,.5504E-4,0
GAOFEN-2,2014-049A,2026-05-10T12:58:32.445984,14.80861321,.0007475,98.0124,194.7803,7.0938,353.0378,0,U,40118,999,63366,.14326E-3,.1053E-4,0
BRITE-PL2 (HEWELIUSZ),2014-049B,2026-05-10T06:39:06.780384,14.94452111,.00129121,97.9055,241.9982,231.7846,128.2212,0,U,40119,999,63578,.11135412E-3,.1143E-4,0
CBERS 4,2014-079A,2026-05-10T12:53:52.940256,14.35499693,.0001934,98.3552,188.5451,105.9305,254.2095,0,U,40336,999,59855,.14225E-3,.367E-5,0
SMAP,2015-003A,2026-05-10T11:21:07.045344,14.63405338,.0001463,98.1287,138.1005,69.8392,290.2968,0,U,40376,999,60210,.64869E-4,.289E-5,0
GONETS-M 11,2015-020A,2026-05-10T11:54:53.910720,12.42876065,.001738,82.4873,54.4730,83.3185,276.9872,0,U,40552,999,50405,.10502E-2,.155E-5,0
GONETS-M 12,2015-020B,2026-05-10T13:13:15.826368,12.42890211,.0016413,82.4905,55.5531,68.9910,291.2924,0,U,40553,999,50405,.47041E-3,.75E-6,0
GONETS-M 13,2015-020C,2026-05-10T12:34:09.738912,12.42869405,.0014994,82.4869,54.1961,55.0845,305.1641,0,U,40554,999,50402,.11958E-2,.176E-5,0
DMC3-FM1,2015-032A,2026-05-10T13:22:21.659232,14.85693519,.0005625,97.6511,357.1986,161.9887,198.1529,0,U,40715,999,58432,-.29134E-4,-.304E-5,0
DMC3-FM2,2015-032B,2026-05-10T13:54:18.195264,14.85699185,.000602,97.6564,358.7676,168.9403,191.1946,0,U,40716,999,58432,.42201E-4,.315E-5,0
DMC3-FM3,2015-032C,2026-05-10T12:50:34.217664,14.85701283,.000531,97.6617,0.4541,165.6421,194.4946,0,U,40717,999,58432,.10673E-3,.874E-5,0
CARBONITE 1 (CBNT-1),2015-032D,2026-05-10T11:29:33.122976,14.83472643,.0015874,97.6506,310.1308,61.2605,299.0202,0,U,40718,999,58375,.15746E-3,.1246E-4,0
LILACSAT-2,2015-049K,2026-05-10T12:35:31.195104,15.50200823,.0007877,97.4701,165.9629,45.0341,315.1548,0,U,40908,999,58991,.20255E-3,.11349E-3,0
COSMOS 2507 (RODNIK-S 13),2015-050A,2026-05-10T11:31:40.256256,12.42925702,.0011201,82.4892,103.1464,72.6383,287.5921,0,U,40920,999,48217,.32255E-4,.14E-6,0
COSMOS 2508 (RODNIK-S 14),2015-050B,2026-05-10T12:22:15.140064,12.42912659,.0015398,82.4845,101.6438,103.2922,256.9876,0,U,40921,999,48216,-.38412E-3,-.43E-6,0
COSMOS 2509 (RODNIK-S 15),2015-050C,2026-05-10T10:54:16.570080,12.42882119,.0015523,82.4853,101.7803,119.6583,240.6045,0,U,40922,999,48219,-.90535E-3,-.115E-5,0
